STARLINK-34448
1 64291U 25123A   26060.84769560  .00059976  00000+0  49600-2 0  9990
2 64291  70.0015 214.2426 0005081 285.5572  74.5026 14.98568626 41662
